{"type": "FeatureCollection", "features": [ {"type": "Feature", "properties": {"norad_id": 33825, "name": "COSMOS 2251 DEB", "group": "cosmos-2251-debris", "lat": -72.57311715227303, "lon": -31.93580869126055, "alt_km": 663.4365337747613, "timestamp": "2025-12-09T09:46:48.038284+00:00", "meta": {"OBJECT_NAME": "COSMOS 2251 DEB", "OBJECT_ID": "1993-036BS", "EPOCH": "2025-12-08T13:29:10.217184", "MEAN_MOTION": 14.69708612, "ECCENTRICITY": 0.008433, "INCLINATION": 73.9851, "RA_OF_ASC_NODE": 35.9146, "ARG_OF_PERICENTER": 3.9987, "MEAN_ANOMALY": 121.8448, "EPHEMERIS_TYPE": 0, "CLASSIFICATION_TYPE": "U", "NORAD_CAT_ID": 33825, "ELEMENT_SET_NO": 999, "REV_AT_EPOCH": 88818, "BSTAR": 0.0011359, "MEAN_MOTION_DOT": 7.121e-05, "MEAN_MOTION_DDOT": 0}, "tle": {"line1": "1 33825U 93036BS  25342.56192381  .00007121  00000+0  11359-2 0  9994", "line2": "2 33825  73.9851  35.9146 0084330   3.9987 121.8448 14.69708612888183"}}, "geometry": {"type": "Point", "coordinates": [-31.93580869126055, -72.57311715227303]}}, {"type": "Feature", "properties": {"norad_id": 33826, "name": "COSMOS 2251 DEB", "group": "cosmos-2251-debris", "lat": 22.055924898368616, "lon": 62.7885026942367, "alt_km": 707.2716433746064, "timestamp": "2025-12-09T09:46:48.038295+00:00", "meta": {"OBJECT_NAME": "COSMOS 2251 DEB", "OBJECT_ID": "1993-036BT", "EPOCH": "2025-12-08T16:01:24.642912", "MEAN_MOTION": 14.51664644, "ECCENTRICITY": 0.0083653, "INCLINATION": 74.065, "RA_OF_ASC_NODE": 57.5314, "ARG_OF_PERICENTER": 103.1899, "MEAN_ANOMALY": 15.9338, "EPHEMERIS_TYPE": 0, "CLASSIFICATION_TYPE": "U", "NORAD_CAT_ID": 33826, "ELEMENT_SET_NO": 999, "REV_AT_EPOCH": 87710, "BSTAR": 0.0017127, "MEAN_MOTION_DOT": 7.169e-05, "MEAN_MOTION_DDOT": 0}, "tle": {"line1": "1 33826U 93036BT  25342.66764633  .00007169  00000+0  17127-2 0  9992", "line2": "2 33826  74.0650  57.5314 0083653 103.1899  15.9338 14.51664644877100"}}, "geometry": {"type": "Point", "coordinates": [62.7885026942367, 22.055924898368616]}}, {"type": "Feature", "properties": {"norad_id": 33828, "name": "COSMOS 2251 DEB", "group": "cosmos-2251-debris", "lat": 8.744840756483525, "lon": -113.1915755999949, "alt_km": 732.6147533200465, "timestamp": "2025-12-09T09:46:48.038306+00:00", "meta": {"OBJECT_NAME": "COSMOS 2251 DEB", "OBJECT_ID": "1993-036BV", "EPOCH": "2025-12-09T03:38:24.497088", "MEAN_MOTION": 14.44313831, "ECCENTRICITY": 0.002942, "INCLINATION": 74.047, "RA_OF_ASC_NODE": 244.7621, "ARG_OF_PERICENTER": 318.2203, "MEAN_ANOMALY": 161.0807, "EPHEMERIS_TYPE": 0, "CLASSIFICATION_TYPE": "U", "NORAD_CAT_ID": 33828, "ELEMENT_SET_NO": 999, "REV_AT_EPOCH": 88261, "BSTAR": 0.00065869, "MEAN_MOTION_DOT": 2.252e-05, "MEAN_MOTION_DDOT": 0}, "tle": {"line1": "1 33828U 93036BV  25343.15167242  .00002252  00000+0  65869-3 0  9997", "line2": "2 33828  74.0470 244.7621 0029420 318.2203 161.0807 14.44313831882610"}}, "geometry": {"type": "Point", "coordinates": [-113.1915755999949, 8.744840756483525]}}, {"type": "Feature", "properties": {"norad_id": 33830, "name": "COSMOS 2251 DEB", "group": "cosmos-2251-debris", "lat": -32.26032974962393, "lon": 67.31147678385257, "alt_km": 669.0778713984246, "timestamp": "2025-12-09T09:46:48.038317+00:00", "meta": {"OBJECT_NAME": "COSMOS 2251 DEB", "OBJECT_ID": "1993-036BX", "EPOCH": "2025-12-09T04:38:34.797120", "MEAN_MOTION": 14.76825988, "ECCENTRICITY": 0.0042281, "INCLINATION": 74.0321, "RA_OF_ASC_NODE": 237.3184, "ARG_OF_PERICENTER": 358.1021, "MEAN_ANOMALY": 158.3088, "EPHEMERIS_TYPE": 0, "CLASSIFICATION_TYPE": "U", "NORAD_CAT_ID": 33830, "ELEMENT_SET_NO": 999, "REV_AT_EPOCH": 89419, "BSTAR": 0.0010986, "MEAN_MOTION_DOT": 7.801e-05, "MEAN_MOTION_DDOT": 0}, "tle": {"line1": "1 33830U 93036BX  25343.19345830  .00007801  00000+0  10986-2 0  9999", "line2": "2 33830  74.0321 237.3184 0042281 358.1021 158.3088 14.76825988894193"}}, "geometry": {"type": "Point", "coordinates": [67.31147678385257, -32.26032974962393]}}, {"type": "Feature", "properties": {"norad_id": 33832, "name": "COSMOS 2251 DEB", "group": "cosmos-2251-debris", "lat": 71.85135774935861, "lon": -24.391980556036557, "alt_km": 699.3335532174924, "timestamp": "2025-12-09T09:46:48.038328+00:00", "meta": {"OBJECT_NAME": "COSMOS 2251 DEB", "OBJECT_ID": "1993-036BZ", "EPOCH": "2025-12-09T03:29:29.707008", "MEAN_MOTION": 14.60573925, "ECCENTRICITY": 0.0025165, "INCLINATION": 74.0535, "RA_OF_ASC_NODE": 216.8321, "ARG_OF_PERICENTER": 248.6945, "MEAN_ANOMALY": 273.0571, "EPHEMERIS_TYPE": 0, "CLASSIFICATION_TYPE": "U", "NORAD_CAT_ID": 33832, "ELEMENT_SET_NO": 999, "REV_AT_EPOCH": 88372, "BSTAR": 0.0015221, "MEAN_MOTION_DOT": 7.408e-05, "MEAN_MOTION_DDOT": 0}, "tle": {"line1": "1 33832U 93036BZ  25343.14548272  .00007408  00000+0  15221-2 0  9991", "line2": "2 33832  74.0535 216.8321 0025165 248.6945 273.0571 14.60573925883720"}}, "geometry": {"type": "Point", "coordinates": [-24.391980556036557, 71.85135774935861]}}, {"type": "Feature", "properties": {"norad_id": 33835, "name": "COSMOS 2251 DEB", "group": "cosmos-2251-debris", "lat": -73.16440558441907, "lon": 36.63523610725013, "alt_km": 708.416069310877, "timestamp": "2025-12-09T09:46:48.038339+00:00", "meta": {"OBJECT_NAME": "COSMOS 2251 DEB", "OBJECT_ID": "1993-036CC", "EPOCH": "2025-12-09T02:46:17.451264", "MEAN_MOTION": 14.62184294, "ECCENTRICITY": 0.0055068, "INCLINATION": 74.0576, "RA_OF_ASC_NODE": 108.0411, "ARG_OF_PERICENTER": 162.5817, "MEAN_ANOMALY": 15.7785, "EPHEMERIS_TYPE": 0, "CLASSIFICATION_TYPE": "U", "NORAD_CAT_ID": 33835, "ELEMENT_SET_NO": 999, "REV_AT_EPOCH": 88736, "BSTAR": 0.001489, "MEAN_MOTION_DOT": 7.638e-05, "MEAN_MOTION_DDOT": 0}, "tle": {"line1": "1 33835U 93036CC  25343.11547976  .00007638  00000+0  14890-2 0  9997", "line2": "2 33835  74.0576 108.0411 0055068 162.5817  15.7785 14.62184294887368"}}, "geometry": {"type": "Point", "coordinates": [36.63523610725013, -73.16440558441907]}}, {"type": "Feature", "properties": {"norad_id": 33836, "name": "COSMOS 2251 DEB", "group": "cosmos-2251-debris", "lat": 73.9777140675641, "lon": -2.4735035968009633, "alt_km": 609.6873514789222, "timestamp": "2025-12-09T09:46:48.038350+00:00", "meta": {"OBJECT_NAME": "COSMOS 2251 DEB", "OBJECT_ID": "1993-036CD", "EPOCH": "2025-12-09T05:03:03.305952", "MEAN_MOTION": 14.79507371, "ECCENTRICITY": 0.0022507, "INCLINATION": 73.9972, "RA_OF_ASC_NODE": 265.914, "ARG_OF_PERICENTER": 120.4204, "MEAN_ANOMALY": 1.1846, "EPHEMERIS_TYPE": 0, "CLASSIFICATION_TYPE": "U", "NORAD_CAT_ID": 33836, "ELEMENT_SET_NO": 999, "REV_AT_EPOCH": 64036, "BSTAR": 0.0015908, "MEAN_MOTION_DOT": 0.00011933, "MEAN_MOTION_DDOT": 0}, "tle": {"line1": "1 33836U 93036CD  25343.21045493  .00011933  00000+0  15908-2 0  9990", "line2": "2 33836  73.9972 265.9140 0022507 120.4204   1.1846 14.79507371640361"}}, "geometry": {"type": "Point", "coordinates": [-2.4735035968009633, 73.9777140675641]}}, {"type": "Feature", "properties": {"norad_id": 33837, "name": "COSMOS 2251 DEB", "group": "cosmos-2251-debris", "lat": 52.76224208097215, "lon": 84.03057067673397, "alt_km": 735.0315686706117, "timestamp": "2025-12-09T09:46:48.038361+00:00", "meta": {"OBJECT_NAME": "COSMOS 2251 DEB", "OBJECT_ID": "1993-036CE", "EPOCH": "2025-12-09T04:33:27.404928", "MEAN_MOTION": 14.50688508, "ECCENTRICITY": 0.0035822, "INCLINATION": 74.0132, "RA_OF_ASC_NODE": 62.2812, "ARG_OF_PERICENTER": 284.5896, "MEAN_ANOMALY": 75.1293, "EPHEMERIS_TYPE": 0, "CLASSIFICATION_TYPE": "U", "NORAD_CAT_ID": 33837, "ELEMENT_SET_NO": 999, "REV_AT_EPOCH": 88744, "BSTAR": 0.00041012, "MEAN_MOTION_DOT": 1.596e-05, "MEAN_MOTION_DDOT": 0}, "tle": {"line1": "1 33837U 93036CE  25343.18990052  .00001596  00000+0  41012-3 0  9997", "line2": "2 33837  74.0132  62.2812 0035822 284.5896  75.1293 14.50688508887449"}}, "geometry": {"type": "Point", "coordinates": [84.03057067673397, 52.76224208097215]}}, {"type": "Feature", "properties": {"norad_id": 33838, "name": "COSMOS 2251 DEB", "group": "cosmos-2251-debris", "lat": -41.57885042246796, "lon": 141.3424681187208, "alt_km": 721.9064233285344, "timestamp": "2025-12-09T09:46:48.038371+00:00", "meta": {"OBJECT_NAME": "COSMOS 2251 DEB", "OBJECT_ID": "1993-036CF", "EPOCH": "2025-12-08T22:55:26.841792", "MEAN_MOTION": 14.48344419, "ECCENTRICITY": 0.0027446, "INCLINATION": 74.0362, "RA_OF_ASC_NODE": 156.9009, "ARG_OF_PERICENTER": 279.3023, "MEAN_ANOMALY": 199.4378, "EPHEMERIS_TYPE": 0, "CLASSIFICATION_TYPE": "U", "NORAD_CAT_ID": 33838, "ELEMENT_SET_NO": 999, "REV_AT_EPOCH": 88514, "BSTAR": 0.00053326, "MEAN_MOTION_DOT": 1.977e-05, "MEAN_MOTION_DDOT": 0}, "tle": {"line1": "1 33838U 93036CF  25342.95517178  .00001977  00000+0  53326-3 0  9990", "line2": "2 33838  74.0362 156.9009 0027446 279.3023 199.4378 14.48344419885147"}}, "geometry": {"type": "Point", "coordinates": [141.3424681187208, -41.57885042246796]}}, {"type": "Feature", "properties": {"norad_id": 33839, "name": "COSMOS 2251 DEB", "group": "cosmos-2251-debris", "lat": 48.49951266848042, "lon": -128.24334478062013, "alt_km": 669.0704155472658, "timestamp": "2025-12-09T09:46:48.038382+00:00", "meta": {"OBJECT_NAME": "COSMOS 2251 DEB", "OBJECT_ID": "1993-036CG", "EPOCH": "2025-12-09T02:02:19.681728", "MEAN_MOTION": 14.64404526, "ECCENTRICITY": 0.0085008, "INCLINATION": 74.0391, "RA_OF_ASC_NODE": 213.5026, "ARG_OF_PERICENTER": 326.4353, "MEAN_ANOMALY": 184.0944, "EPHEMERIS_TYPE": 0, "CLASSIFICATION_TYPE": "U", "NORAD_CAT_ID": 33839, "ELEMENT_SET_NO": 999, "REV_AT_EPOCH": 89526, "BSTAR": 0.00033198, "MEAN_MOTION_DOT": 1.817e-05, "MEAN_MOTION_DDOT": 0}, "tle": {"line1": "1 33839U 93036CG  25343.08495002  .00001817  00000+0  33198-3 0  9995", "line2": "2 33839  74.0391 213.5026 0085008 326.4353 184.0944 14.64404526895264"}}, "geometry": {"type": "Point", "coordinates": [-128.24334478062013, 48.49951266848042]}}]}